FORMOSAT 7-1            
1 44349U 19036L   26068.08230957  .00004503  00000+0  36542-3 0  9993
2 44349  23.9993 347.0403 0001047  84.2943 275.7677 14.96019979369648
NIGHTJAR                
1 60535U 24149BV  26068.64552146  .00004278  00000+0  36344-3 0  9997
2 60535  97.6919 146.7603 0002393  83.3363 276.8132 14.98398810127967
